#dP2023 11 24  0  0  0.00000000      96 __u+U IGS20 FIT  IAC
## 2289 432000.00000000   900.00000000 60272 0.0000000000000
+  118   C06C07C08C09C10C11C12C13C14C16C19C20C21C22C23C24C25
+        C26C27C28C29C30C32C33C34C35C36C37C38C39C40C41C42C43
+        C44C45C46E02E03E04E05E07E08E09E10E11E12E13E15E19E21
+        E24E25E26E27E30E31E33E34E36G01G02G03G04G05G06G07G08
+        G09G10G11G12G13G14G15G16G17G18G19G20G21G22G23G24G25
+        G26G27G28G29G30G31G32J02J03J04R01R02R03R04R05R07R08
+        R09R11R12R13R14R15R16R17R18R19R20R21R22R24R25R26  0
++         8  7  9  9  6  9  7  8  8  8  7  6  6  7  5  7  7
++         6  6  7  6  7  6  8  7  5  6  6  7  9  7  7  7  7
++         7  8  7  7  6  6  7  5  6  7  8  7  8  6  7  7  5
++         6  6  6  6  6  6  7  7  7  6  6  7  6  6  6  6  6
++         6  4  6  6  5  6  6  7  6  6  6  6  5  5  6  6  7
++         7  6  6  7  5  6  5  9  8  8  7  6  6  5  6  7  8
++         7  7  7  8  6  6  7  6  6  7  8  7  6  6  6  5  0
%c M  cc GPS ccc cccc cccc cccc cccc ccccc ccccc ccccc ccccc
%c cc cc ccc ccc cccc cccc cccc cccc ccccc ccccc ccccc ccccc
%f  0.0000000  0.000000000  0.00000000000  0.000000000000000
%f  0.0000000  0.000000000  0.00000000000  0.000000000000000
%i    0    0    0    0      0      0      0      0         0
%i    0    0    0    0      0      0      0      0         0
/* INFORMATION & ANALYSIS CENTER (IAC)      ULTRA-RAPID DATA
/* S/V CLOCKS ARE ALIGNED TO GNSS TIME                      
/* G:C1WC2W R:C1PC2P E:C1XC5X C:C2IC6I J:C1CC2S             
/* PCV:IGS20_2287 OL/AL:FES2004  NONE     YN ORB:CoN CLK:CoN
*  2023 11 24  8 15  0.00000000
PC06 -16282.686915  25996.865971  28828.565659     37.940446
PC07  -9706.376818  40747.441763   5787.665901   -367.966794
PC08    997.752399  25797.807671 -33281.975827    221.982551
PC09  -5312.636039  25624.370908  33376.995486   -129.674572
PC10  -3280.335617  42295.736618  -1557.844414    -28.489441
PC11 -22898.606151   1183.339530  15997.191651    272.011236
PC12  -8245.657656 -13105.975039  23263.665599    848.213265
PC13   6383.632768  29057.347174 -29602.697714    386.911432
PC14 -15520.243753  -6129.515560 -22350.747604    846.236947
PC16 -19498.955838  25376.849322  27533.233838   -191.369932
PC19  15246.343488  -5046.731505  22837.508255   -963.747826
PC20  13741.969392  14763.718144  19299.393228     89.198391
PC21  -3716.912314 -27398.002067  -3708.252192   -970.014432
PC22   8080.668757 -23092.037383  13399.760012   -212.913492
PC23 -12075.041646  11800.365830  22219.065129 999999.999999
PC24 -23046.586083 -15244.367110  -4035.389915    627.063497
PC25 -24451.602357  -1223.699255  13401.256019    262.749696
PC26  -9198.144310 -19086.062351 -18200.109445   -210.648939
PC27   -426.363979  17909.896144 -21408.429863    232.587242
PC28 -16816.164699  19452.259376 -10839.539175    175.653956
PC29  24762.785930  -9749.690540  -8395.365142    205.544069
PC30  16843.588746   6581.739788 -21260.657754     -8.976795
PC32   3877.527409  27402.721905   3609.535328   -537.064751
PC33 -15249.689488   5040.508521 -22824.030734   -943.575943
PC34 -17941.840229  -5417.919733  20663.160955    310.221807
PC35  16006.069484 -20124.387189  10878.818136    495.885728
PC36  24700.006934   2479.932588 -12717.450797   -121.085794
PC37   8020.438815  19204.932129  18582.175094   -898.164811
PC38  -7597.740195  22713.906987 -34647.601917    119.722153
PC39 -22632.950226  25974.345901  24185.605102     -5.795279
PC40 -15543.656693  38412.587632   8551.288250    -45.206262
PC41  -8402.265990  22631.910125 -13953.840738   -871.649168
PC42 -13287.631657 -16231.105886 -18357.631760   -493.185794
PC43 -24766.075094   8984.153607   9169.358346     49.547848
PC44    -90.176090 -18117.755853  21223.452175    302.334237
PC45  11446.033719 -12065.685691 -22412.298814    -48.988090
PC46  23521.188338  14677.222190   2948.893873   -102.212738
PE02 -15193.990079   7156.047168  24371.399238     81.043137
PE03 -20335.244396  17598.120914 -12384.463376    -75.558498
PE04  10820.716007 -26887.959724  -6022.704556   -264.653635
PE05 -17976.477403  -1817.223879 -23448.761985   4693.942196
PE07   4734.460299  20638.186685  20682.840326    -89.466400
PE08 -11236.672167  26829.303868   5495.571786   -181.816231
PE09  -4548.564982 -20658.932515 -20706.514091   -238.883286
PE10  -2685.823043 -15939.932708  24797.803200   -581.240042
PE11 -14602.396679 -14052.040866  21569.663629   3228.314727
PE12   8431.225231 -15365.890862  23859.094501   -790.211782
PE13  13873.366528  14180.615370 -21958.445892    -19.613596
PE15  -8978.275522  15200.988044 -23747.418293    -71.133748
PE19  20713.738197 -15509.167895  14379.395840  -1151.469250
PE21  20621.158539  12540.106863 -17133.774214   -565.640366
PE24 -13914.143662 -26126.948725   -919.478346   -448.857387
PE25 -20621.934621 -12910.835377  16869.901006     -2.963839
PE26  28474.059423   4531.914091  -6668.425492    290.066776
PE27  14298.479176  25905.949935    423.270818   -207.623119
PE30   -754.127533  23690.242307  17710.827854   -687.459472
PE31    360.858500 -23860.094176 -17513.650227    -10.538734
PE33  26536.129718  -6977.000943  11099.132875      2.955211
PE34 -26225.060248   7354.073599 -11606.506639    -79.664209
PE36 -28247.332414  -4896.603664   7374.012151   -148.368812
PG01  11114.131991  13658.422710 -20342.574665    163.298114
PG02   4749.721976  14383.356024 -21331.970907   -524.786821
PG03  11785.948573  23784.389228  -2129.622263      7.031029
PG04   4173.214799  18047.423271  18992.280092    221.425924
PG05  -2903.859945 -22359.343322  13787.510363   -151.570466
PG06  23417.399017  -6638.482829  10822.392807    497.482382
PG07  24665.644071   6477.121635   8727.837173      5.328475
PG08  -2124.849685  22924.128637 -12954.505346   -153.625379
PG09  13001.484780   8009.857144  21643.055296      6.366655
PG10 -16246.595968   -344.117159 -20887.910080    -62.617713
PG11  14094.874811 -12261.915075  18880.842983   -473.280501
PG12  -9227.830114 -24752.314677  -3403.684712   -450.343650
PG13  12498.902725 -22530.774864  -6164.956892    598.618492
PG14  17829.749055   3986.013682 -19314.764448    252.071980
PG15  -1218.790595 -23144.333640 -13261.781790    100.228852
PG16  -4374.912870  19238.567718  17238.914669   -416.532044
PG17  18745.768152  -6843.775790 -17156.236382    722.905910
PG18 -25290.898661  -5192.379805   6646.224405   -487.938555
PG19  19690.244475 -13698.643968 -11206.105719    403.211631
PG20   6881.089882 -15046.367482  20861.810918    400.048513
PG21   1643.478429  14868.374532 -21440.907687    143.433912
PG22  14642.689743  -3711.377683 -21383.533486     78.193184
PG23 -18754.781229 -12625.276180 -14076.121476    104.230557
PG24  -6202.797825 -15275.942204 -21276.085783   -378.478785
PG25 -17183.207094 -18938.134892   7351.447917    478.731367
PG26 -10831.956734  11813.957217  21007.626714    214.423737
PG27 -12492.135320  23157.104619  -1189.507297    -74.204674
PG28 -24252.470142   6601.146546   8563.394033    -53.390120
PG29 -11633.553487  -9364.547734  21917.206799   -610.138737
PG30  26628.589668   -908.961292  -1703.571960   -464.903322
PG31 -19150.125796  10288.430514  15331.618177   -226.024371
PG32 -18562.852163  10984.841854 -15172.087742   -589.282086
PJ02 -25920.835566  23942.192056  28252.045162     -0.275498
PJ03 -34283.828320  19267.295793 -10445.426012     -9.356495
PJ04 -20013.071057  30961.956390 -15455.328946     72.893939
PR01   3280.137015  22285.420191  11971.225513     70.554193
PR02   9595.955791   7159.749083  22552.775129    -22.325791
PR03  11024.492334 -11912.660424  19742.759810     89.610557
PR04   6439.973477 -23894.964308   6252.734716    212.395671
PR05  -1533.044714 -23142.036558 -10648.907162    122.737650
PR07 -10895.281533  12654.291364 -19225.085818     69.831548
PR08  -6159.874865  23999.268935  -5921.913609    -73.405286
PR09 -21601.698328 -12102.725733   5974.122880    154.952017
PR11  -2876.027839  11311.828420  22690.821639   -215.530241
PR12  14020.140286  17815.173644  11698.084728     33.756916
PR13  21224.987483  13633.515293  -3779.852393    -41.641994
PR14  16195.745316    260.184519 -19702.249201     25.598783
PR15   1726.166787 -12202.348305 -22317.129255     84.521759
PR16 -13969.439165 -17649.387928 -11964.739907     20.916730
PR17  23601.399923  -9608.807242    372.250907     37.661233
PR18  14910.608992 -13414.603563  15811.684866    113.519141
PR19    405.099979 -11016.442337  23009.367595   -255.788448
PR20 -19167.344667  -1189.536457  16784.134888   -104.047335
PR21 -23588.452913   9698.281564  -1002.224674    -55.807845
PR22 -14346.969412  13258.731560 -16365.043009     95.026992
PR24  19709.284001    373.307340 -16152.069396    -33.352046
PR25 -24025.073387   8600.632685   -359.234292     -4.022010
PR26  -6299.291279  23824.041038  -6605.413184    -15.347034
EOF
